IRIDIUM 166             
1 43570U 18061B   25299.08211086  .00000187  00000+0  59780-4 0  9996
2 43570  86.3991 154.6137 0001844  86.2912 273.8494 14.34218450379849
IRIDIUM 158             
1 43571U 18061C   25299.12016539  .00000287  00000+0  95377-4 0  9991
2 43571  86.3992 154.6077 0002245  80.1759 279.9690 14.34213326379811
IRIDIUM 165             
1 43572U 18061D   25299.14553817 -.00000069  00000+0 -31656-4 0  9999
2 43572  86.3998 154.6387 0001805  87.6218 272.5184 14.34216839379847
IRIDIUM 155             
1 43573U 18061E   25299.10748191  .00000217  00000+0  70467-4 0  9993
2 43573  86.3988 154.5355 0002010  79.7832 280.3591 14.34218492379806
IRIDIUM 154             
1 43574U 18061F   25299.15822362  .00000647  00000+0  22391-3 0  9991
2 43574  86.3993 154.6362 0002058  85.3191 274.8240 14.34218103379869
IRIDIUM 163             
1 43575U 18061G   25299.13919916  .00000332  00000+0  11144-3 0  9997
2 43575  86.3990 154.5670 0002255  84.0841 276.0611 14.34222937379838
IRIDIUM 156             
1 43576U 18061H   25299.11382422  .00000140  00000+0  43108-4 0  9995
2 43576  86.3993 154.5845 0001901  79.2555 280.8855 14.34218127379829
IRIDIUM 164             
1 43577U 18061J   25299.09479678  .00000086  00000+0  23819-4 0  9999
2 43577  86.3991 154.6292 0001869  88.7561 271.3849 14.34217873379869
